{"type":"Topology","objects":{"ES":{"type":"GeometryCollection","geometries":[{"type":"Polygon","id":"relation/348991","properties":{"ISO3166-2":"ES-RI","addr:country":"ES","admin_level":"4","boundary":"administrative","ine:ccaa":"17","ine:provincia":"26","is_in:country":"Spain","name":"La Rioja","name:ca":"La Rioja","name:es":"La Rioja","name:eu":"Errioxa","name:pt":"La Rioja","name:ru":"Риоха","official_name":"La Rioja","source":"BDLL25, EGRN, Instituto Geográfico Nacional","type":"boundary","wikipedia":"en:La Rioja (Spain)","id":"relation/348991"},"arcs":[[-1,-2,-3,-4,-5,-6,-7,-8,-9,-10,-11,-12],[12],[13,14]]},{"type":"MultiPolygon","id":"relation/349013","properties":{"ISO3166-2":"ES-CB","addr:country":"ES","admin_level":"4","boundary":"administrative","ine:ccaa":"06","ine:provincia":"39","is_in":"Europe, Spain","is_in:continent":"Europe","is_in:country":"Spain","is_in:country_code":"ES","is_in:region":"Cantabria","is_in:region_code":"06","name":"Cantabria","name:ca":"Cantàbria","name:fr":"Cantabrie","source":"BDLL25, EGRN, Instituto Geográfico Nacional","type":"boundary","wikipedia":"es:Cantabria","id":"relation/349013"},"arcs":[[[-16,-17,-18,-19,-20,-21,-22,-23,-24,-25,-26,-27,-28,-29,-30,-31,-32,-33,-34,-35,-36,-37,-38,-39,37,-40,-41,-42,-43,-44,-45],[45],[46]],[[-48,47,48]],[[-50,-51,-52,-53,52,-53,-54,-48,-55,-55,-56,-57,-58,-59,-60]],[[60,-61,61]],[[-63,-64,60]],[[-30,64]],[[-66]]]},{"type":"MultiPolygon","id":"relation/349027","properties":{"ISO3166-2":"ES-NC","addr:country":"ES","admin_level":"4","boundary":"administrative","ine:ccaa":"15","ine:provincia":"31","is_in:country":"Spain","name":"Comunidad Foral de Navarra","name:es":"Comunidad Foral de Navarra","name:eu":"Nafarroa","name:fr":"Navarre","name:pt":"Navarra","name:ru":"Нава́рра","official_name":"Comunidad Foral de Navarra","source":"BDLL25, EGRN, Instituto Geográfico Nacional","type":"boundary","wikipedia":"fr:Communauté forale de Navarre","id":"relation/349027"},"arcs":[[[-67]],[[-68]],[[-69,-70,-71,-72,-73,-74,73,-74,-75,-76,-77,-78,-79,0,-80,-81,-82,-83,-84,-85,-86,-87,86,-87,-88,-89,-90,-91,-92,-93,-94,-95,-96,-97,-98,-99,-100,-101]]]},{"type":"MultiPolygon","id":"relation/349033","properties":{"ISO3166-2":"ES-AS","addr:country_code":"ES","admin_level":"4","border_type":"region","boundary":"administrative","ine:ccaa":"03","is_in":"Europe, Spain","is_in:continent":"Europe","is_in:country":"Spain","is_in:country_code":"ES","name":"Principado de Asturias","name:ca":"Principat d'Astúries","name:de":"Fürstentum Asturien","name:eu":"Asturiasko Printzerria","name:ext":"Prencipau d'Astúrias","name:fr":"Principauté des Asturies","name:pt":"Principado das Astúrias","name:ru":"Астури́йское кня́жество","official_name:ast":"Principáu d'Asturies","official_name:es":"Principado de Asturias","source":"BDLL25, EGRN, Instituto Geográfico Nacional","timezone":"Europe/Madrid","type":"boundary","wikipedia":"es:Principado de Asturias","id":"relation/349033"},"arcs":[[[27,-27,25,-25,23,-102,-103,-104,-105,-106,-107,-108,-109,-110,-111,-112,-113,-114,-115,115,-116,-117,-118,-119,-120,-121,-122,-123,-124,-125,-126,-127,-128,-129,-130,-131,-132,-133,-134,-135,-136,-137,-138,-139,-140,-141,-142,-143,-144,-145,-146,-147,147,-148,147,-149,-150,-151,-152,-153]]]},{"type":"MultiPolygon","id":"relation/349036","properties":{"ISO3166-2":"ES-GA","addr:country_code":"ES","admin_level":"4","alt_name:gl":"Galiza","border_type":"region","boundary":"administrative","ine:ccaa":"12","is_in":"Europe, Spain","is_in:continent":"Europe","is_in:country":"Spain","is_in:country_code":"ES","name":"Galicia","name:ca":"Galícia","name:cs":"Galície","name:de":"Galicien","name:en":"Galicia","name:es":"Galicia","name:eu":"Galizia","name:fr":"Galice","name:gl":"Galicia","name:nl":"Galicië","name:pt":"Galiza","name:ru":"Галисия","official_name":"Comunidade Autónoma de Galicia","source":"BDLL25, EGRN, Instituto Geográfico Nacional","timezone":"Europe/Madrid","type":"boundary","wikipedia":"gl:Galicia","id":"relation/349036"},"arcs":[[[153,154]],[[155,-156,156]],[[157,-158,158]],[[159,160]],[[161,-162,162]],[[163,-164,164]],[[165,166]],[[167,-168,168]],[[169,170,-171]],[[171]],[[161,-173,-174]],[[174,-175,175]],[[-177,-178,-179]],[[179,180,181]],[[182,157,183,184]],[[185,186]],[[171]],[[187,-188,187,188,-188]],[[-190,-191,185]],[[191,192]],[[-194,-195,-196]],[[196,197]],[[187,198]],[[199,200]],[[201,202,203,-203,202,-203]],[[204,-205,205]],[[204,206]],[[207,208]],[[-210,160,-211]],[[-212,-213,-214,-215,-216,-175,-217]],[[217,218,219]],[[125,124,123,-123,121,120,119,-119,117,116,115,-116,114,-114,112,-221,-222,-223,-224,-225,-226,-227,-228,-229,-230,-231,196,-232,-164,-233,-234,-235,153,-236,-237,-238,-239,-240,-241,-242,-243,-244,155,-245,-246,218,-247,-248,-249,-250,-251,177,-252,-253,-254,199,-255,-256,-257,-258,-259,179,-260,184,-261,-262,191,-263,-264,166,-265,-266,-267,-268,-168,-269,-270,-271,-272,-273,-274,-275,-276,-277,-278,-279,-280,280,-281,280,-282,-283,207,-284,-285,-286,-287,-288,-171,-289,-290,-291,-292,195,194,-195,-293,-294,-294,-203,-295]]]},{"type":"MultiPolygon","id":"relation/349041","properties":{"ISO3166-2":"ES-CL","addr:country_code":"ES","admin_level":"4","border_type":"region","boundary":"administrative","ine:ccaa":"07","is_in":"Europe, Spain","is_in:continent":"Europe","is_in:country":"Spain","is_in:country_code":"ES","name":"Castilla y León","name:ast":"Castiella y Lleón","name:ca":"Castella i Lleó","name:de":"Kastilien und León","name:en":"Castile and León","name:es":"Castilla y León","name:eu":"Gaztela eta Leon","name:fr":"Castille-et-León","name:nl":"Castilië en León","name:pt":"Castela e Leão","name:ru":"Кастилия и Леон","official_name":"Castilla y León","source":"BDLL25, EGRN, Instituto Geográfico Nacional","timezone":"Europe/Madrid","type":"boundary","website":"http://www.jcyl.es/","wikipedia":"es:Castilla y León","id":"relation/349041"},"arcs":[[[-46]],[[-13]],[[-47]],[[-14,14]],[[-296,-297]],[[228,-228,226,-226,224,-224,222,-222,220,111,-111,109,-109,107,-107,105,-105,103,-103,101,22,-22,20,-20,18,-298,-299,299,-300,-301,-302,-303,10,-10,8,-8,6,-6,4,-4,2,-304,-305,-306,-307,306,-307,-308,-309,-310,-311,-312,-313,-314,-315,-316,-317,-318,-319,-320,-321,-322,-323,-324,-325,-326,-327,-328,-329,-330,-331,-332,-333,-334,-335,-336,-337,-338,-339],[-340]]]},{"type":"MultiPolygon","id":"relation/349042","properties":{"ISO3166-2":"ES-PV","addr:country_code":"ES","admin_level":"4","border_type":"region","boundary":"administrative","ine:ccaa":"16","is_in":"Europe, Spain","is_in:continent":"Europe","is_in:country":"Spain","is_in:country_code":"ES","name":"Euskadi","name:ca":"País Basc","name:en":"Basque Country","name:es":"País Vasco","name:eu":"Euskal Herria","name:fr":"Pays basque","name:hr":"Baskija","name:nl":"Baskenland","name:pt":"País Basco","name:ru":"Страна Басков","official_name":"Euskal Autonomia Erkidegoa / Comunidad Autónoma del País Vasco","official_name:es":"Comunidad Autónoma del País Vasco","official_name:eu":"Euskal Autonomia Erkidegoa","official_name:fr":"Communauté autonome basque","place":"state","ref:NUTS-2":"ES21","ref:ine":"16","source":"BDLL25, EGRN, Instituto Geográfico Nacional","timezone":"Europe/Madrid","type":"boundary","wikipedia:es":"es:Pais Vasco","wikipedia:eu":"eu:Euskal Autonomia Erkidegoa","id":"relation/349042"},"arcs":[[[340,341,-341,340,-341]],[[93,92,91,90,89,-89,87,86,-87,86,85,84,83,82,81,-81,79,11,302,-302,300,299,-300,298,297,17,-17,15,-343,-344,-345,340,-346,97,-97,95,-95],[65],[295,-297]]]},{"type":"MultiPolygon","id":"relation/349043","properties":{"ISO3166-2":"ES-VC","addr:country_code":"ES","admin_level":"4","border_type":"region","boundary":"administrative","ine:ccaa":"70","is_in":"Europe, Spain","is_in:continent":"Europe","is_in:country":"Spain","is_in:country_code":"ES","name":"Comunidad Valenciana / Comunitat Valenciana","name:de":"Valencianische Gemeinschaft","name:en":"Valencian Community","name:es":"Comunidad Valenciana","name:fr":"Communauté Valencienne","name:pt":"Comunidade Valenciana","official_name:ca":"Comunitat Valenciana","official_name:es":"Comunidad Valenciana","old_name":"Regne de València","place":"state","rank":"state","source_ref":"BDLL25, EGRN, Instituto Geográfico Nacional","timezone":"Europe/Madrid","type":"boundary","wikipedia":"es:Comunidad Valenciana","id":"relation/349043"},"arcs":[[[-347]],[[-348,-349]],[[-350,-351,-352,-353,-354,-355,-356,-357,-358,-359,-360,-361,-362,-363,-364,-365,-366,-367,367,-368,-369,369,-370,-371,-372,-373,-374,374,-375,-376,-377,-378,-379,-380,-381,-382,-383,-384,-385,-386,-387,-388,-389,-390,-391,-392,-393,-394,-395,-396,-397,-398,-399,-400,-401,-402,-403,-404,-405,-406,-407,-408,-409,-410]]]},{"type":"MultiPolygon","id":"relation/349044","properties":{"ISO3166-2":"ES-AN","addr:country_code":"ES","admin_level":"4","border_type":"region","boundary":"administrative","ine:ccaa":"01","is_in":"Europe, Spain","is_in:continent":"Europe","is_in:country":"Spain","is_in:country_code":"ES","name":"Andalucía","name:ar":"أندلوسيا","name:ca":"Andalusia","name:de":"Andalusien","name:en":"Andalusia","name:es":"Andalucía","name:eu":"Andaluzia","name:fr":"Andalousie","name:hr":"Andaluzija","name:nl":"Andalusië","name:pt":"Andaluzia","name:ru":"Андалусия","name:sv":"Andalusien","official_name":"Andalucía","source":"BDLL25, EGRN, Instituto Geográfico Nacional","timezone":"Europe/Madrid","type":"boundary","wikipedia":"es:Andalucía","id":"relation/349044"},"arcs":[[[410,-411,411]],[[-413,-414,-415,-416,-417,-418,-419,-420,-421,-422,-423,-424,-425,-426,-427,-428,-429,-430,-431,-432,-433,-434,-435,-436,-437,-438,-439,-440,-441,-442,-443,-444,-445,-446,-447,-448,-449,-450,-451,410]]]},{"type":"Polygon","id":"relation/349045","properties":{"ISO3166-2":"ES-AR","addr:country_code":"ES","admin_level":"4","border_type":"region","boundary":"administrative","ine:ccaa":"02","is_in":"Europe, Spain","is_in:continent":"Europe","is_in:country":"Spain","is_in:country_code":"ES","name":"Aragón","name:ca":"Aragó","name:de":"Aragonien","name:en":"Aragon","name:es":"Aragón","name:eu":"Aragoi","name:fr":"Aragon","name:pt":"Aragão","name:ru":"Арагон","official_name":"Aragón","source":"BDLL25, EGRN, Instituto Geográfico Nacional","type":"boundary","website":"http://www.aragon.es/","wikipedia":"es:Aragón","id":"relation/349045"},"arcs":[[-452,-453,-454,-455,-456,-457,-458,-459,-460,-461,-462,398,-398,396,-396,394,-394,392,-392,390,-390,388,-388,386,385,384,383,382,-382,380,-380,378,-378,-377,375,374,-375,373,372,-372,370,369,-370,368,367,-368,366,-366,364,-364,362,-362,360,-463,347,-464,-465,-466,-467,-468,-469,-470,307,306,-307,306,305,-305,303,1,78,-78,76,-76,74,73,-74,73,72,-72,70,-70,68,-101,99,-471],[66],[67]]},{"type":"MultiPolygon","id":"relation/349047","properties":{"ISO3166-2":"ES-MC","addr:country_code":"ES","admin_level":"4","border_type":"region","boundary":"administrative","idee:name":"Región de Murcia","ine:ccaa":"14","is_in":"Europe, Spain","is_in:continent":"Europe","is_in:country":"Spain","is_in:country_code":"ES","name":"Región de Murcia","name:de":"Region Murcia","name:es":"Región de Murcia","name:eu":"Murtziako Eskualdea","name:fr":"Région de Murcie","name:pt":"Região de Múrcia","source":"BDLL25, EGRN, Instituto Geográfico Nacional","timezone":"Europe/Madrid","type":"boundary","website":"http://wwwp.carm.es/","wikipedia":"es:Región de Murcia","id":"relation/349047"},"arcs":[[[-472,-473,-474,-475,-476,-477,-478,-479,-480,-481,-482,-483,-484,-485,-486]],[[-487,-488,-489]],[[489,-490,490]],[[-490,491,492]],[[493,-494,490]],[[494,495]],[[496,-497,497]],[[498,-500,-501,501,-502,498,-499]],[[-503,-504,499]],[[504,505,-506,505,506,-507,507,-505]],[[-509,-510,-511,-507,-512,491,-513,-514,479,-515,477,475,-516]],[[484,-517,-518,-519,-520]],[[448,-521,-522,-523,-524,523,-524,-525,350,349,-350,-526,-527,-528,495,-529,516,-530,-531,-532,-533,533,-534,-535,-536,-537,-538,488,-539,-540,-541,-542,-543,-544,-545,-546,-547,-548,-549,496,-550,549,-551,-552,-553,-554,-555]]]},{"type":"MultiPolygon","id":"relation/349048","properties":{"ISO3166-2":"ES-CN","addr:country_code":"ES","admin_level":"4","border_type":"region","boundary":"administrative","ine:ccaa":"05","is_in":"Atlantic, Spain","is_in:country":"Spain","is_in:country_code":"ES","name":"Canarias","name:ca":"Canàries","name:de":"Kanarische Inseln","name:el":"Κανάρια Νησιά","name:en":"Canary Islands","name:es":"Canarias","name:fr":"Canaries","name:hr":"Kanari","name:it":"Canarie","name:nl":"Canarische","name:pt":"Canárias","name:ru":"Канарские острова","name:sv":"Kanarieöarna","natural":"archipelago","official_name":"Canarias","place":"archipelago","source":"BDLL25, EGRN, Instituto Geográfico Nacional","timezone":"Atlantic/Canary","type":"boundary","website":"http://www.gobcan.es/","wikipedia":"es:Canarias","id":"relation/349048"},"arcs":[[[555]],[[556]],[[557]],[[558,558,558]],[[559,559,559]],[[556]],[[560]],[[557]],[[561,-562,558]],[[555]],[[562,562,562]],[[562,562,562]],[[563,562]],[[564,-565,565]],[[566,-567,567]],[[568,-569,559]],[[560]],[[569,-570,570]],[[571,-572,572]],[[573,573,573]],[[574,574,574]],[[573,573,573]],[[574,574,574]],[[-576,-577,-578]],[[578,579]],[[580,-581,581]],[[582,582,582]],[[583,-584,584]],[[585,-586,586]],[[587,-588,582]],[[580,-581,581]],[[588,-589,589]],[[590,-591,591]],[[592,-593,573]],[[593,-594,593,-594]],[[594,-595,574]],[[595,596,597,598,-599,-598,-597,-596]],[[599,600,-601,-600]],[[-602]],[[-603]],[[-600,603,604,604,605]],[[-607]],[[-608,-609]],[[-610]],[[-611,-612,-613]],[[-614,-615,-616,-617,564,569,-618,585,-619,-620,566,-621,-622,-623,-624,-625,-569,-626,-627,-628,-629,-630,-631,-632,-633,-634,-635,-636,-637,-638,-639,-640,640,-641,640,-642]],[[-643,-644,-645]],[[-646,-647,-648,-649,598,-650,-651,575,-652,-653,-654,-655,-656,-657,-658,-659,-660,-661,-662,590,-663,-589,-664,-594,-665,-584,-666,-667,-668,-669,-670,-671,-672,-572,-673,-674,-675,-675,-676,-677,-678,-679,580,-680,-681,-682,-683,-579,-684,-685,684,-686,-687,-688]]]},{"type":"Polygon","id":"relation/349050","properties":{"ISO3166-2":"ES-EX","addr:country_code":"ES","admin_level":"4","border_type":"region","boundary":"administrative","ine:ccaa":"11","is_in":"Europe, Spain","is_in:continent":"Europe","is_in:country":"Spain","is_in:country_code":"ES","name":"Extremadura","name:ast":"Estremadura","name:ca":"Extremadura","name:en":"Extremadura","name:es":"Extremadura","name:eu":"Extremadura","name:ext":"Estremaúra","name:fr":"Estrémadure","name:pt":"Estremadura","name:ru":"Эстремадура","official_name":"Extremadura","source":"BDLL25, EGRN, Instituto Geográfico Nacional","timezone":"Europe/Madrid","type":"boundary","wikipedia":"es:Extremadura","id":"relation/349050"},"arcs":[[337,-337,335,-335,333,-333,331,-331,329,-329,327,326,325,-325,323,-689,-690,-691,-692,-693,-694,-695,-696,-697,-698,-699,438,437,-437,435,-435,433,-433,431,-431,429,-429,427,-427,425,-425,423,422,421,-421,419,-419,417,-417,415,414,413,-700]]},{"type":"MultiPolygon","id":"relation/349052","properties":{"ISO3166-2":"ES-CM","addr:country_code":"ES","admin_level":"4","border_type":"region","boundary":"administrative","ine:ccaa":"08","is_in":"Europe, Spain","is_in:continent":"Europe","is_in:country":"Spain","is_in:country_code":"ES","name":"Castilla-La Mancha","name:ast":"Castiella-La Mancha","name:ca":"Castella-La Manxa","name:de":"Kastilien-La Mancha","name:en":"Castile-La Mancha","name:es":"Castilla-La Mancha","name:eu":"Gaztela-Mantxa","name:ext":"Castilla-La Mancha","name:fr":"Castille-La Manche","name:nl":"Castilië-La Mancha","name:pt":"Castela-Mancha","name:ru":"Кастилия-Ла-Манча","official_name":"Castilla-La Mancha","source":"BDLL25, EGRN, Instituto Geográfico Nacional","timezone":"Europe/Madrid","type":"boundary","wikipedia":"es:Castilla-La Mancha","id":"relation/349052"},"arcs":[[[700]],[[312,311,-311,309,308,469,-469,467,-467,465,-465,463,348,462,359,358,357,-357,355,-355,353,-353,351,524,523,-524,523,522,-522,520,447,-447,445,-445,443,442,441,-441,439,438,-439,698,-698,696,-696,694,-694,692,-692,690,-690,688,322,-322,320,-320,318,-702,-703,-704,-705,-706,-707,-708,-709,-710,-711,710,-711,-712,-713,-714,-715,-716,-717,-718,-719,-720,-721,-722,-723,-724,-725,-726,-727,-728,-729,-730,-731,-732,-733,-734,-735,-736,-737,-738,-739,-740,-741,-742,-743,-744,-745,-746,745,-746,-747,-748,-749,-750,-751,-752,-753,-754,-755,-756,-757]]]},{"type":"MultiPolygon","id":"relation/349053","properties":{"FIXME":"Missing \"àmbit\": Penedès (idescat:08) in some future","ISO3166-2":"ES-CT","addr:country_code":"ES","admin_level":"4","border_type":"region","boundary":"administrative","ine:ccaa":"09","is_in":"Europe, Spain","is_in:continent":"Europe","is_in:country":"Spain","is_in:country_code":"ES","name":"Catalunya","name:ca":"Catalunya","name:de":"Katalonien","name:en":"Catalonia","name:es":"Cataluña","name:eu":"Katalunia","name:fr":"Catalogne","name:hr":"Katalonija","name:nl":"Catalonië","name:oc":"Catalonha","name:pt":"Catalunha","name:ru":"Каталония","name:sv":"Katalonien","note":"Comarcas covered by multiple provinces: Berguedà, Cerdanya, Osona, Selva","official_name":"Catalunya","official_name:ca":"Catalunya","official_name:es":"Cataluña","source":"BDLL25, EGRN, Instituto Geográfico Nacional","timezone":"Europe/Madrid","type":"boundary","wikipedia:ca":"ca:Catalunya","wikipedia:es":"es:Cataluña","id":"relation/349053"},"arcs":[[[757,758]],[[759,-760,760]],[[-760,761]],[[762,762,762]],[[763,-764,764]],[[765,-766,766]],[[767,768]],[[769,770]],[[771,771,771]],[[769,770]],[[772,-773,773]],[[774,-775,762]],[[775,-776,776]],[[777,778,-779,-778]],[[779,-780,779,-780,779,-780]],[[780,-781,781]],[[782,783]],[[784,785]],[[786,-787,787]],[[788,-789,789]],[[790,790,790]],[[790,790,790]],[[786,-787,787]],[[791,-792,771]],[[781,781,781]],[[-760,759,-760,759]],[[792,-793,790]],[[781,781,781]],[[780,-781,781]],[[793,794,-795,794]],[[795,-796,796]],[[-798]],[[-799,-800,-801,-802,795,-803,780,-804,-776,-805,-806,-807,-808,-809,-810,399,461,-461,459,-459,457,-457,455,-455,453,-453,451,-811,-812,-813,-766,-814,-815,-816,-817,-818,782,-819,-820,-821,-822,-823,-824,-825,-764,-826,-827,-828,-829,784,-830,-779,-778,-831,-832,-833]],[[833,834,835,836,837,-773,-787,786,-787,786,838,794,-792,839,840,-760,841,-775,842,843,844,845,-846,845,757,846,847,848,849,850,851,852,853,854,788,855,856,857,767,858,-859,859,860,861,862,863,779,864,865,866,867,868,869,798]]]},{"type":"MultiPolygon","id":"relation/349055","properties":{"ISO3166-2":"ES-MD","addr:country_code":"ES","admin_level":"4","border_type":"region","boundary":"administrative","idee:name":"Madrid, Comunidad de","ine:ccaa":"13","is_in":"Europe, Spain","is_in:continent":"Europe","is_in:country":"Spain","is_in:country_code":"ES","name":"Comunidad de Madrid","name:ca":"Madrid","name:de":"Autonome Gemeinschaft Madrid","name:en":"Community of Madrid","name:es":"Comunidad de Madrid","name:fr":"Madrid","name:pt":"Madrid","name:ru":"Мадрид","official_name":"Comunidad de Madrid","official_name:es":"Comunidad de Madrid","official_name:fr":"Communauté de Madrid","official_name:pt":"Comunidade de Madrid","source":"BDLL25, EGRN, Instituto Geográfico Nacional","timezone":"Europe/Madrid","type":"boundary","wikipedia":"es:Comunidad de Madrid","wikipedia:en":"Community of Madrid","wikipedia:es":"Comunidad de Madrid","wikipedia:ru":"Мадрид (автономное сообщество)","id":"relation/349055"},"arcs":[[[339]],[[756,755,754,753,752,-752,750,-750,748,-748,746,745,-746,745,744,-744,742,-742,-741,739,-739,737,-737,735,-735,733,-733,731,-731,729,728,727,-727,725,-725,723,-723,721,-721,719,-719,717,-717,715,-715,713,-713,711,710,-711,710,709,-709,707,-707,705,-705,703,-703,701,317,-317,315,-315,313],[-701]]]},{"type":"MultiPolygon","id":"relation/1154756","properties":{"ISO3166-2":"ES-CE","addr:country_code":"ES","admin_level":"4","border_type":"region","boundary":"administrative","ine:ccaa":"18","is_in":"Africa, Spain","is_in:continent":"Africa","is_in:country":"Spain","is_in:country_code":"ES","name":"Ceuta","name:ar":"سبتة","name:be":"Горад Сеўта","name:bg":"Сеута","name:el":"Θέουτα","name:eo":"Ceŭto","name:fa":"سبته","name:he":"סאוטה","name:hi":"सेउटा","name:ja":"セウタ","name:ka":"სეუტა","name:kk":"Сеута","name:ko":"세우타","name:la":"Septa","name:lt":"Seuta","name:lv":"Seuta","name:mk":"Сеута","name:mr":"सेउता","name:os":"Сеутæ","name:ru":"Се́ута","name:sr":"Сеута","name:su":"Céuta","name:ta":"சியூடா","name:th":"เซวตา","name:uk":"Сеута","name:zh":"休达","timezone":"Africa/Ceuta","type":"boundary","wikipedia":"es:Ceuta","id":"relation/1154756"},"arcs":[[[870,871,872,873,874]],[[-876,-877,873]]]},{"type":"MultiPolygon","id":"relation/1154757","properties":{"ISO3166-2":"ES-ML","addr:country_code":"ES","admin_level":"4","border_type":"region","boundary":"administrative","ine:ccaa":"19","ine:municipio":"52001","is_in":"Africa, Spain","is_in:continent":"Africa","is_in:country":"Spain","is_in:country_code":"ES","name":"Melilla","name:ar":"مليلية","name:be":"Горад Мелілья","name:bg":"Мелиля","name:el":"Μελίγια","name:eo":"Melilo","name:fa":"ملیلیه","name:he":"מלייה","name:hy":"Մելիլյա","name:ja":"メリリャ","name:ka":"მელილია","name:kk":"Мелилья","name:ko":"멜리야","name:la":"Rusadir","name:lt":"Melilja","name:lv":"Melilja","name:mk":"Мелилја","name:mr":"मेलिया","name:os":"Мелилья","name:ru":"Мели́лья","name:sr":"Мелиља","name:su":"Mélilya","name:ta":"மெலில்லா","name:th":"เมลียา","name:uk":"Мелілья","name:zh":"梅利利亚","name:zu":"IMelilla","population":"76034","population:date":"2009","timezone":"Africa/Ceuta","type":"boundary","wikidata":"Q5831","wikipedia":"es:Melilla","id":"relation/1154757"},"arcs":[[[-878]]]},{"type":"LineString","id":"way/158024035","properties":{"id":"way/158024035"},"arcs":[472]},{"type":"LineString","id":"way/219409162","properties":{"id":"way/219409162"},"arcs":[878]},{"type":"LineString","id":"way/219409193","properties":{"id":"way/219409193"},"arcs":[471]},{"type":"LineString","id":"way/299011070","properties":{"id":"way/299011070"},"arcs":[879]},{"type":"LineString","id":"way/160773702","properties":{"id":"way/160773702"},"arcs":[37,36]},{"type":"LineString","id":"way/285545891","properties":{"id":"way/285545891"},"arcs":[880]},{"type":"LineString","id":"way/285573153","properties":{"id":"way/285573153"},"arcs":[881]},{"type":"LineString","id":"way/285573373","properties":{"id":"way/285573373"},"arcs":[881]},{"type":"LineString","id":"way/285573374","properties":{"id":"way/285573374"},"arcs":[881]},{"type":"LineString","id":"way/285576432","properties":{"id":"way/285576432"},"arcs":[881]},{"type":"LineString","id":"way/285397652","properties":{"id":"way/285397652"},"arcs":[882]},{"type":"LineString","id":"way/285397654","properties":{"id":"way/285397654"},"arcs":[882]},{"type":"LineString","id":"way/4808505","properties":{"id":"way/4808505"},"arcs":[59,58,57,56,55,54,54,47,53,52,-53,52,51,50,49]},{"type":"LineString","id":"way/285586229","properties":{"id":"way/285586229"},"arcs":[883]},{"type":"LineString","id":"way/285588923","properties":{"id":"way/285588923"},"arcs":[884]},{"type":"LineString","id":"way/285397649","properties":{"id":"way/285397649"},"arcs":[-48,47]},{"type":"LineString","id":"way/285586228","properties":{"id":"way/285586228"},"arcs":[52,-53]},{"type":"LineString","id":"way/285586230","properties":{"id":"way/285586230"},"arcs":[883]},{"type":"LineString","id":"way/285586231","properties":{"id":"way/285586231"},"arcs":[883]},{"type":"Point","id":"node/29333339","properties":{"id":"node/29333339"},"coordinates":[1268,304]},{"type":"Point","id":"node/291768008","properties":{"id":"node/291768008"},"coordinates":[5981,5107]},{"type":"Point","id":"node/289031151","properties":{"id":"node/289031151"},"coordinates":[7080,4738]},{"type":"Point","id":"node/1721119369","properties":{"id":"node/1721119369"},"coordinates":[7128,4778]},{"type":"Point","id":"node/998649870","properties":{"id":"node/998649870"},"coordinates":[4473,9436]},{"type":"Point","id":"node/1099011107","properties":{"id":"node/1099011107"},"coordinates":[4791,9274]},{"type":"Point","id":"node/248820656","properties":{"id":"node/248820656"},"coordinates":[5660,6036]},{"type":"Point","id":"node/252217933","properties":{"id":"node/252217933"},"coordinates":[5497,6982]},{"type":"Point","id":"node/1679058496","properties":{"id":"node/1679058496"},"coordinates":[6577,7564]},{"type":"Point","id":"node/260380069","properties":{"id":"node/260380069"},"coordinates":[7923,6410]},{"type":"Point","id":"node/34105607","properties":{"id":"node/34105607"},"coordinates":[8274,7324]},{"type":"Point","id":"node/21068295","properties":{"id":"node/21068295"},"coordinates":[6726,7911]},{"type":"Point","id":"node/29272534","properties":{"id":"node/29272534"},"coordinates":[6249,8675]},{"type":"Point","id":"node/27000791","properties":{"id":"node/27000791"},"coordinates":[7205,9415]},{"type":"Point","id":"node/257352079","properties":{"id":"node/257352079"},"coordinates":[7314,9179]},{"type":"Point","id":"node/266776249","properties":{"id":"node/266776249"},"coordinates":[8039,8675]},{"type":"Point","id":"node/28849760","properties":{"id":"node/28849760"},"coordinates":[7684,9397]},{"type":"Point","id":"node/493395619","properties":{"id":"node/493395619"},"coordinates":[5730,9733]},{"type":"Point","id":"node/26562214","properties":{"id":"node/26562214"},"coordinates":[6676,9796]},{"type":"Point","id":"node/152364165","properties":{"id":"node/152364165"},"coordinates":[9462,8508]}]}},"arcs":[[[7589,8895],[-25,13],[-2,24],[38,54],[28,-2],[21,-11],[17,11],[1,22],[-13,15],[-53,12],[-20,27],[-23,16],[-1,16],[-22,5],[-4,12],[-25,8],[-20,-14],[-17,44],[-33,-5],[-28,21],[-43,17],[-9,-9],[-33,23]],[[7585,8870],[4,25]],[[7502,8856],[24,-15],[32,7],[27,22]],[[7502,8856],[0,0]],[[7501,8854],[1,2]],[[7501,8854],[0,0]],[[7004,9233],[-13,-9],[29,-7],[-8,-31],[20,-20],[-8,-12],[4,-32],[-22,27],[-2,-19],[20,-19],[-22,-4],[9,-64],[-18,-29],[34,-46],[10,-25],[48,-5],[8,-33],[15,-8],[39,23],[3,38],[27,10],[12,-25],[-23,-32],[5,-16],[20,5],[14,-11],[27,5],[17,-6],[14,35],[15,9],[1,30],[26,0],[9,14],[56,5],[17,-10],[11,-26],[7,6],[46,3],[8,-14],[-16,-8],[21,-28],[2,-40],[35,-10]],[[7004,9233],[0,0]],[[7067,9287],[-53,0],[11,-23],[-21,-31]],[[7067,9287],[0,0]],[[7119,9286],[-27,-12],[-25,13]],[[7323,9194],[-46,1],[5,18],[-22,-23],[-24,12],[-20,-12],[-21,30],[7,39],[-39,16],[-8,-26],[-18,-15],[-1,21],[-17,31]],[[7089,9262],[0,0]],[[7054,9262],[0,0]],[[7054,9262],[0,0]],[[6853,9659],[14,2],[27,30],[24,-2],[30,12],[8,-16],[27,14],[-1,28]],[[6853,9659],[0,0]],[[6859,9591],[-8,24],[2,44]],[[6665,9549],[-8,8],[44,5],[25,20],[24,40],[33,-18],[44,-13],[32,0]],[[6665,9549],[0,0]],[[6373,9547],[28,-14],[25,-41],[51,-11],[6,-60],[12,-8],[23,17],[11,-9],[-6,-17],[-21,-6],[16,-20],[24,1],[13,-19],[12,5],[20,40],[1,-38],[10,-8],[31,7],[8,23],[13,-11],[21,8],[-2,43],[-19,12],[-1,-20],[-22,5],[40,34],[-17,21],[-12,-18],[-38,-8],[-8,12],[16,41],[31,28],[26,13]],[[6373,9547],[0,0]],[[6197,9622],[-5,-34],[8,-16],[43,-28],[-1,-19],[48,-5],[16,11],[24,-6],[16,14],[21,-6],[6,14]],[[6248,9667],[-1,-39],[-50,-6]],[[6248,9667],[0,0]],[[6341,9680],[-35,16],[-25,-24],[-33,-5]],[[6341,9680],[0,0]],[[6350,9753],[-12,-32],[9,-30],[-6,-11]],[[6355,9755],[-5,-2]],[[6356,9755],[-1,0]],[[6366,9755],[-10,0]],[[6614,9800],[-27,-19],[-37,-3],[-44,-20],[-72,-7],[-68,4]],[[6614,9800],[0,0]],[[6620,9802],[-6,-2]],[[6623,9803],[-3,-1]],[[6686,9777],[-11,-16],[-1,26],[18,12],[-5,15],[-35,-11],[-29,0]],[[6694,9786],[-8,-9]],[[6693,9786],[1,0]],[[6693,9786],[0,0]],[[6694,9786],[0,0]],[[6694,9786],[0,0]],[[6715,9800],[-21,-14]],[[6862,9768],[-18,13],[8,16],[-37,8],[-13,17],[-27,5],[-43,-24],[-17,-3]],[[6862,9767],[0,1]],[[6982,9727],[-19,8],[-13,19],[-48,13],[-40,0]],[[6513,9397],[0,0]],[[6541,9381],[0,0]],[[6715,9803],[0,0]],[[6715,9803],[0,0]],[[6713,9802],[0,-2]],[[6713,9803],[0,-1]],[[6714,9805],[-1,-2]],[[6714,9803],[0,2]],[[6715,9803],[-1,0]],[[6715,9803],[0,0]],[[6714,9802],[1,1]],[[6714,9802],[0,0]],[[6715,9800],[-1,2]],[[6715,9800],[0,0]],[[6713,9800],[2,0]],[[6619,9802],[0,1]],[[6619,9802],[0,0]],[[6620,9802],[-1,1]],[[6619,9802],[1,0]],[[6356,9755],[-1,0]],[[6937,9669],[-26,0],[4,-32],[15,0],[7,32]],[[7915,9164],[-17,-10],[12,-10],[5,20]],[[7923,9166],[33,-8],[-6,21],[-14,12],[-13,-25]],[[8002,9331],[28,29],[14,2],[10,16],[-4,36],[18,15],[-1,17],[14,13],[22,1]],[[8002,9331],[0,0]],[[7968,9308],[3,16],[31,7]],[[7968,9308],[0,0]],[[7911,9269],[0,22],[54,0],[3,17]],[[7910,9269],[1,0]],[[7875,9228],[35,41]],[[7875,9228],[0,0]],[[7664,8862],[15,7],[28,-24],[33,-10],[10,9],[38,-7],[18,19],[7,24],[29,36],[-4,19],[-19,0],[-6,22],[-16,13],[3,39],[-11,19],[9,43],[30,49],[-12,3],[8,30],[32,35],[-9,19],[13,27],[15,-6]],[[7664,8862],[0,0]],[[7589,8895],[6,-7],[32,0],[11,-18],[26,-8]],[[7430,9476],[-20,-9],[0,-56],[-22,-33],[8,-24],[-28,-19],[6,-30],[10,-1],[-26,-21],[-23,17],[-27,-10],[-17,-35],[16,-13],[14,24],[13,-5],[2,-50],[-13,-17]],[[7430,9476],[0,0]],[[7573,9640],[-14,10],[-4,-47],[9,-10],[-21,-24],[-28,-14],[-16,-27],[2,-30],[-28,-5],[-3,-16],[-35,-6],[-5,5]],[[7573,9640],[0,0]],[[7575,9644],[-2,-4]],[[7575,9644],[0,0]],[[7581,9648],[-6,-4]],[[7581,9648],[0,0]],[[7584,9644],[-3,4]],[[7584,9644],[0,0]],[[7586,9645],[-2,-1]],[[7586,9645],[0,0]],[[7588,9650],[-2,-5]],[[7588,9650],[0,0]],[[7629,9689],[-15,-9],[0,-17],[-26,-13]],[[7629,9689],[0,0]],[[7630,9689],[-1,0]],[[7630,9689],[0,0]],[[7644,9693],[-14,-4]],[[8111,9459],[-12,30],[-30,-10],[-73,7],[-18,19],[-29,3],[-72,36],[-16,-8],[-21,16],[17,30],[-35,-14],[-3,-41],[-41,11],[-14,28],[26,22],[14,40],[3,36],[-14,14],[-15,-3],[-29,16],[-28,-3],[-5,-24],[-16,2],[-7,31],[-21,8],[-28,-12]],[[8103,9460],[8,-1]],[[8103,9460],[0,0]],[[6018,9563],[27,9],[33,4],[9,44],[37,5],[25,23],[23,9],[16,-12],[9,-23]],[[6018,9563],[0,0]],[[5827,9531],[44,-10],[22,2],[6,20],[40,-4],[5,24],[48,-5],[26,5]],[[5827,9531],[0,0]],[[5770,9508],[14,28],[16,8],[27,-13]],[[5770,9508],[0,0]],[[5520,9527],[32,-13],[6,25],[36,-16],[19,5],[7,27],[24,-11],[26,6],[9,-30],[31,-14],[-2,-8],[41,-11],[19,5],[2,16]],[[5520,9527],[0,0]],[[5490,9546],[30,-19]],[[5490,9546],[0,0]],[[5274,9457],[31,-19],[17,21],[49,4],[32,-8],[17,10],[36,6],[0,16],[-17,2],[29,20],[5,24],[17,13]],[[5212,9528],[22,-25],[14,1],[20,-20],[6,-27]],[[5212,9528],[0,0]],[[5209,9506],[3,22]],[[5209,9506],[0,-1]],[[5209,9505],[0,1]],[[5207,9531],[-13,-10],[15,-16]],[[5207,9531],[0,0]],[[5253,9626],[15,-14],[5,-25],[-42,-32],[-16,2],[-8,-26]],[[5253,9626],[0,0]],[[5142,9704],[19,-5],[1,-35],[22,-22],[22,-6],[-5,-24],[17,-21],[29,18],[6,17]],[[5142,9704],[0,0]],[[5112,9759],[-5,-8],[26,-11],[-2,-25],[11,-11]],[[5112,9759],[0,0]],[[5177,9846],[-7,-41],[-24,-30],[-34,1],[0,-17]],[[5218,9865],[-41,-19]],[[5250,9859],[-32,6]],[[5251,9860],[-1,-1]],[[5260,9860],[-9,0]],[[5351,9860],[-31,-6],[-19,8],[-20,-9],[-21,7]],[[5519,9862],[-27,-12],[-30,2],[-24,11],[-10,-14],[-49,3],[-28,8]],[[5519,9862],[0,0]],[[5520,9863],[-1,-1]],[[5520,9863],[0,0]],[[5543,9873],[-23,-10]],[[5544,9878],[-1,-5]],[[5545,9878],[-1,0]],[[5568,9869],[-23,9]],[[5586,9862],[-18,7]],[[6240,9768],[-77,21],[-6,7],[-52,-1],[-20,8],[-66,2],[-34,35],[-42,0],[-5,11],[-56,1],[-81,-6],[-4,14],[-28,12],[-15,17],[5,11],[-28,17],[-18,-22],[-16,0],[-21,-28],[-30,6],[-44,-20],[-16,9]],[[6240,9768],[0,0]],[[6244,9767],[-4,1]],[[6244,9767],[0,0]],[[6245,9767],[-1,0]],[[6245,9767],[0,0]],[[6247,9768],[-2,-1]],[[6247,9768],[0,-1]],[[6248,9767],[-1,0]],[[6248,9767],[0,0]],[[6249,9767],[-1,0]],[[6249,9767],[0,0]],[[6350,9753],[-55,3],[-46,11]],[[4298,9171],[-1,-2]],[[4297,9169],[1,2]],[[4342,9213],[0,1]],[[4342,9213],[0,0]],[[4163,9610],[-1,0]],[[4163,9610],[0,0]],[[4299,9138],[-1,0]],[[4298,9138],[1,0]],[[4596,9856],[0,-2]],[[4596,9856],[0,0]],[[4410,9151],[1,0]],[[4410,9151],[0,0]],[[4331,9708],[-1,0]],[[4330,9708],[1,0]],[[4638,9889],[0,1]],[[4638,9889],[0,0]],[[4952,9961],[0,0]],[[4952,9961],[-1,0]],[[4307,9223],[0,0]],[[4595,9856],[1,-2]],[[4596,9856],[-1,0]],[[4312,9242],[1,0]],[[4312,9242],[0,0]],[[4257,9211],[1,-1]],[[4257,9212],[0,-1]],[[4258,9210],[-1,2]],[[4131,9442],[0,1]],[[4131,9443],[0,0]],[[4131,9443],[0,-1]],[[4163,9610],[0,0]],[[4162,9610],[0,0]],[[4162,9610],[1,0]],[[4988,9952],[-1,0]],[[4987,9952],[1,0]],[[4435,9082],[-1,0]],[[4434,9082],[0,0]],[[4989,9955],[-2,-3]],[[4988,9952],[1,3]],[[4283,9669],[0,1]],[[4283,9670],[0,-1]],[[5170,9854],[-1,0]],[[5170,9853],[0,1]],[[5169,9854],[1,-1]],[[4377,9107],[0,0]],[[4377,9107],[0,0]],[[4434,9082],[1,0]],[[4242,9300],[0,0]],[[4242,9300],[0,0]],[[5173,9854],[0,0]],[[5173,9854],[-1,0]],[[5172,9854],[0,0]],[[4307,9041],[0,0]],[[4307,9041],[0,0]],[[4307,9041],[0,0]],[[4907,9930],[1,-1]],[[4908,9929],[-1,1]],[[4298,9138],[-12,-21]],[[4286,9117],[13,21]],[[4319,9218],[10,24],[-16,0]],[[4321,9228],[-2,-10]],[[4321,9234],[0,-6]],[[4313,9240],[8,-6]],[[4313,9242],[0,-2]],[[4313,9242],[-1,0]],[[4344,9234],[-1,0]],[[4343,9234],[0,0]],[[4343,9234],[1,0]],[[5157,9204],[13,77],[16,16],[-15,24],[12,14],[17,0],[12,22],[12,-7],[43,50],[-15,32],[20,4],[2,21]],[[5157,9204],[0,0]],[[5268,9196],[-11,-3],[-30,19],[-22,-16],[-48,8]],[[5268,9196],[0,0]],[[5270,9196],[-2,0]],[[5270,9196],[0,0]],[[5315,9087],[1,26],[-40,17],[-11,12],[14,13],[2,27],[-11,14]],[[5315,9087],[0,0]],[[5200,8873],[10,34],[-6,17],[-18,-1],[-10,12],[15,8],[6,22],[16,6],[8,29],[44,31],[26,-7],[-7,12],[29,40],[2,11]],[[4309,8961],[6,-39],[0,-81],[7,-34],[19,19],[38,28],[0,13],[40,25],[10,27],[43,5],[11,15],[38,3],[6,-7],[42,8],[66,44],[5,-50],[29,5],[13,-7],[6,-32],[-37,-23],[-25,-43],[8,-24],[14,3],[2,-39],[16,-5],[55,13],[11,24],[32,6],[5,28],[11,2],[-3,-42],[8,-9],[14,22],[25,2],[43,14],[21,-16],[33,-3],[-15,-27],[20,-1],[56,22],[12,-36],[17,22],[16,-2],[74,25],[8,25],[0,37],[17,7],[26,-12],[8,-14],[28,0],[12,14]],[[4377,9107],[-19,-14],[-14,7],[0,-34],[-16,16],[-3,-27],[35,-11],[64,31],[10,34],[7,-36],[-25,-10],[-20,-23],[-30,-13],[-16,-19],[-11,-48],[-30,1]],[[4411,9151],[-34,-44]],[[4342,9130],[7,9],[23,-5],[27,26],[11,-9]],[[4318,9157],[24,-27]],[[4298,9171],[21,-2],[-1,-12]],[[4329,9172],[-1,26],[-23,-13],[-8,-16]],[[4331,9173],[-2,-1]],[[4331,9174],[0,-1]],[[4346,9204],[-1,-32],[-14,2]],[[4346,9207],[0,-3]],[[4346,9207],[0,0]],[[4346,9207],[0,0]],[[4347,9207],[-1,0]],[[4342,9213],[5,-6]],[[4342,9221],[0,-7]],[[4343,9234],[-1,-13]],[[4344,9234],[-1,0]],[[4344,9237],[0,-3]],[[4329,9278],[2,24],[17,0],[10,-17],[24,6],[-38,-54]],[[4278,9242],[29,47],[5,-17],[17,6]],[[4257,9212],[21,30]],[[4257,9212],[0,-1]],[[4243,9211],[14,1]],[[4242,9300],[3,-6],[-24,-51],[15,5],[12,-22],[-5,-15]],[[4192,9388],[28,-40],[20,19],[-8,9],[53,0],[20,11],[-21,-33],[-18,-5],[-15,-19],[-9,-30]],[[4199,9416],[13,-21],[-20,-7]],[[4193,9435],[6,-19]],[[4193,9435],[0,0]],[[4131,9442],[8,17],[21,14],[17,-16],[24,-3],[-8,-19]],[[4162,9610],[5,-20],[16,6],[2,-20],[-43,-11],[-1,-24],[-12,-7],[12,-20],[-11,-32],[1,-39]],[[4192,9629],[-17,-20],[-12,1]],[[4283,9669],[8,-19],[-31,3],[-26,-30],[-42,6]],[[4330,9708],[-27,0],[1,-14],[-37,-15],[16,-9]],[[4330,9708],[0,0]],[[4519,9743],[-29,-31],[-21,-10],[-26,3],[-45,-16],[-32,6],[-33,25],[-2,-12]],[[4563,9751],[7,-8],[-11,-22],[-40,22]],[[4596,9854],[-20,-1],[13,-15],[-23,-43],[22,0],[49,11],[1,-9],[-56,-6],[25,-21],[30,4],[-12,-21],[5,-40],[-20,14],[-7,21],[-17,11],[-23,-8]],[[4638,9890],[-12,-20],[-30,-16]],[[4638,9889],[0,0]],[[4676,9911],[-23,-22],[-15,0]],[[4704,9950],[-17,-43],[-11,4]],[[4704,9950],[0,0]],[[4841,9969],[-19,-5],[-19,-28],[-10,11],[-3,-27],[-15,2],[12,25],[5,36],[-21,2],[-9,-17],[-37,-23],[-21,5]],[[4911,9941],[-13,33],[-25,3],[0,13],[-32,-21]],[[4911,9941],[0,0]],[[4911,9941],[0,0]],[[4907,9932],[4,9]],[[4907,9932],[0,0]],[[4907,9932],[0,0]],[[4906,9931],[1,1]],[[4906,9931],[1,0]],[[4907,9930],[0,1]],[[4907,9930],[0,0]],[[4908,9928],[0,1]],[[4908,9926],[0,2]],[[4908,9926],[0,0]],[[4951,9961],[-18,0],[-9,-22],[-16,-13]],[[4951,9961],[0,0]],[[4964,9960],[-12,1]],[[4964,9960],[0,0]],[[4987,9942],[-23,18]],[[5169,9854],[-53,-1],[-40,7],[-38,38],[-12,28],[-39,16]],[[5172,9854],[-2,-1]],[[5172,9854],[0,0]],[[5177,9846],[-4,8]],[[7236,9328],[20,19],[-13,9],[-68,25],[-45,3],[-16,-35],[39,-26],[8,-21],[53,3],[9,-14],[55,0],[-2,22],[-27,-8],[-13,23]],[[7236,9328],[0,0]],[[6956,9620],[-21,12],[-76,-41]],[[6957,9620],[-1,0]],[[6957,9620],[-1,0]],[[6966,9614],[-9,6]],[[6966,9614],[0,0]],[[7119,9286],[-18,10],[-3,23],[-33,10],[-35,36],[-46,-6],[9,17],[-14,13],[25,47],[-9,6],[-15,-21],[-16,8],[-21,-21],[-21,24],[22,42],[39,-3],[11,-20],[17,-5],[35,8],[16,19],[-30,20],[-7,19],[-39,2],[5,55],[-22,13],[18,28],[-21,4]],[[7547,8525],[-7,31],[-13,17],[6,37],[-12,32],[33,-1],[30,39],[24,2],[15,38],[-36,39],[15,26],[-17,49],[0,36]],[[7547,8525],[0,0]],[[7521,8516],[26,9]],[[7521,8516],[0,0]],[[7494,8363],[-13,14],[-31,9],[-4,46],[-8,17],[4,43],[18,8],[10,48],[26,-7],[8,-33],[17,8]],[[6862,8432],[35,-5],[40,7],[21,25],[67,-19],[50,11],[9,14],[27,5],[4,-28],[40,-13],[9,11],[21,2],[3,-15],[56,-17],[6,-28],[-9,-18],[10,-6],[27,5],[16,-19],[6,-24],[32,-10],[21,15],[15,-18],[28,5],[14,19],[27,-8],[20,22],[31,-30],[6,48]],[[6860,8440],[2,-8]],[[6860,8440],[0,0]],[[6862,8432],[-2,8]],[[6802,8374],[34,11],[10,20],[19,0],[-3,27]],[[6597,8138],[16,49],[-3,18],[21,39],[13,11],[44,16],[21,33],[28,19],[31,41],[34,10]],[[6597,8138],[0,0]],[[6330,7823],[11,9],[-8,31],[16,-13],[26,0],[9,45],[11,12],[37,-2],[8,32],[-3,56],[15,7],[7,43],[10,-17],[44,12],[-6,34],[13,9],[35,63],[42,-6]],[[6330,7823],[0,0]],[[6319,7787],[9,7],[2,29]],[[6271,7781],[31,-5],[17,11]],[[6271,7781],[0,0]],[[6093,7746],[22,4],[1,-29],[43,19],[-1,17],[54,41],[1,25],[21,-9],[29,12],[8,-45]],[[6093,7746],[0,0]],[[5967,7724],[7,-5],[50,0],[19,-14],[38,23],[12,18]],[[5776,7831],[25,2],[34,-43],[41,-17],[28,8],[19,28],[40,7],[-10,-37],[-1,-27],[15,-28]],[[5776,7831],[0,0]],[[5611,7873],[39,-10],[5,-21],[31,-16],[12,4],[10,22],[45,17],[6,-24],[-10,-9],[27,-5]],[[5611,7873],[0,0]],[[5619,7895],[-8,-22]],[[5619,7895],[0,0]],[[5609,7909],[10,-14]],[[5609,7909],[0,0]],[[5488,7914],[14,16],[27,6],[19,17],[16,-1],[45,-43]],[[5488,7914],[0,0]],[[5398,7833],[-1,24],[42,25],[15,0],[8,17],[21,0],[5,15]],[[5398,7833],[0,0]],[[5296,7804],[27,15],[12,-16],[10,13],[39,4],[14,13]],[[5296,7804],[0,0]],[[5255,7820],[13,-14],[28,-2]],[[5200,8873],[19,-17],[56,0],[5,30],[20,-5],[8,-25],[24,-8],[47,11],[5,11],[20,-19],[-9,-35],[22,-3],[-24,-82],[9,-35],[26,-19],[19,16],[43,-3],[27,-8],[52,-53],[-33,-56],[-11,-5],[-5,-27],[-33,-26],[-24,-29],[-13,-29],[-33,-15],[-16,-19],[-19,6],[-46,-27],[-3,-17],[-34,-37],[8,-12],[-9,-18],[-28,-30],[-46,2],[31,-48],[12,-39],[14,-5],[3,-22],[-11,-2],[3,-31],[-5,-27],[9,-19],[2,-54],[-18,-41],[19,-6],[4,-28],[-25,-35],[11,-34],[15,-17],[2,-22],[-34,-22],[-1,-18]],[[6460,8070],[8,-14],[-29,-3],[1,12],[20,5]],[[7614,9754],[1,0]],[[7615,9754],[0,0]],[[7016,9729],[-34,-2]],[[7017,9729],[-1,0]],[[7614,9754],[-36,-17],[-24,-22],[-23,2],[-92,-29],[-24,14],[-48,-9],[-65,25],[-20,25],[-52,8],[-8,14],[-24,-9],[-22,18],[-8,19],[-29,-15],[-60,0],[-30,-32],[-11,-3],[10,-25],[-31,11]],[[7644,9693],[-4,21],[-24,13],[-1,27]],[[8749,7601],[0,-53],[20,0],[11,53],[-31,0]],[[7907,7659],[37,16],[2,20],[-33,29],[-41,-2],[-27,54],[-9,0],[-1,-33],[-18,-12],[-42,12]],[[7775,7743],[-4,-10],[16,-24],[21,-47],[42,-4],[14,-9],[43,10]],[[8094,6319],[0,1]],[[7971,6819],[11,-50],[-10,-34],[5,-14],[-29,-31],[-5,-16],[1,-45],[45,-17],[9,-39],[-18,-53],[-13,-20],[2,-26],[43,-76],[8,-18],[42,-50],[32,-11]],[[7888,7231],[20,-7],[-15,-79],[-15,-19],[-18,-46],[1,-19],[17,-13],[36,-58],[88,9],[17,-33],[-7,-22],[4,-44],[-14,-10],[21,-45],[-22,-25],[-30,-1]],[[7888,7231],[0,0]],[[7844,7241],[44,-10]],[[7844,7241],[0,0]],[[7740,7308],[16,-27],[17,0],[3,-24],[9,11],[19,-8],[23,-20],[17,1]],[[7740,7308],[0,0]],[[7746,7339],[-6,-31]],[[7746,7339],[0,0]],[[7916,7635],[-27,-14],[0,-59],[-6,-28],[-29,-43],[8,-25],[-14,-16],[-36,9],[-24,-20],[-19,-49],[-20,-8],[-3,-43]],[[8152,7695],[-20,-15],[-38,-2],[-2,-20],[-32,-18],[-5,-17],[8,-29],[14,-16],[-31,-21],[-22,15],[4,44],[-38,24],[-74,-5]],[[8152,7695],[0,0]],[[8179,7738],[-23,-22],[-4,-21]],[[8179,7738],[0,0]],[[8264,7836],[6,-20],[-31,-18],[-20,-4],[-23,13],[-17,-69]],[[8264,7836],[0,0]],[[8265,7836],[-1,0]],[[8265,7836],[1,0]],[[8266,7838],[-1,-2]],[[8266,7838],[0,-2]],[[8275,7842],[-9,-4]],[[8275,7842],[0,0]],[[8276,7842],[-1,0]],[[8277,7842],[-1,0]],[[8277,7842],[-1,0]],[[8278,7842],[-1,0]],[[8278,7842],[0,0]],[[8278,7842],[0,0]],[[8280,7847],[-2,-5]],[[8280,7847],[0,0]],[[8317,7879],[-11,-2],[-26,-30]],[[8317,7879],[0,0]],[[8318,7882],[-1,-3]],[[8318,7882],[0,0]],[[8288,7926],[30,-44]],[[8288,7926],[0,0]],[[8309,7940],[-21,-14]],[[8309,7940],[0,0]],[[8310,8010],[-2,-39],[14,-26],[-13,-5]],[[8310,8010],[0,0]],[[8312,8024],[-2,-14]],[[8312,8024],[0,0]],[[8293,8028],[19,-4]],[[8293,8028],[0,0]],[[8275,8053],[-3,-16],[21,-9]],[[8275,8053],[0,0]],[[8402,8111],[-20,27],[-24,0],[-20,-38],[1,-21],[-27,-10],[-26,4],[-11,-20]],[[8402,8111],[0,0]],[[8528,8105],[-27,-2],[-33,-24],[-12,25],[-37,-1],[-17,8]],[[8688,7975],[-36,16],[-3,19],[-18,18],[-25,1],[-34,22],[13,27],[-26,8],[-5,19],[-26,0]],[[8688,7975],[0,0]],[[8518,7706],[25,59],[28,16],[7,23],[25,21],[26,38],[14,38],[31,44],[14,30]],[[8518,7706],[0,0]],[[8553,6886],[-19,15],[7,11],[-47,31],[-54,12],[-55,60],[-37,73],[-11,38],[10,19],[-34,77],[-19,63],[13,24],[-9,21],[2,22],[18,28],[7,29],[25,24],[10,45],[49,86],[36,33],[28,79],[27,11],[18,19]],[[8556,6868],[-3,18]],[[8556,6868],[0,0]],[[8549,6865],[7,3]],[[8515,6838],[25,27],[9,0]],[[8421,6767],[0,11],[25,27],[35,6],[15,21],[19,6]],[[8094,6320],[5,31],[15,8],[12,39],[17,7],[8,89],[20,37],[26,0],[16,11],[-6,38],[5,37],[29,22],[20,-6],[-2,23],[12,28],[29,23],[44,22],[25,5],[9,12],[26,-8],[17,29]],[[5995,5356],[0,0]],[[5995,5356],[0,0]],[[5224,6542],[-17,-30],[1,-22],[-10,-12],[-9,-51],[-30,0],[-14,14],[-18,-11],[9,-13],[-43,-3],[-23,-14],[4,-33],[-31,-65],[-36,-35],[-11,-3],[-23,-82],[-24,-43],[15,-22],[15,-40],[-2,-28],[10,-10],[-1,-50],[10,-24],[7,-59],[17,-6],[46,21],[102,3],[80,-41],[-1,6],[43,-21],[98,-64],[33,-29],[36,-55],[15,-45],[26,-9],[-45,-33],[0,-12],[21,-42],[0,-11],[49,-13],[10,-20],[20,-5],[-4,-42],[28,10],[-25,-36],[-13,4],[-13,42],[-2,-13],[25,-50],[7,-26],[18,-17],[15,-41],[15,-2],[30,-60],[30,-14],[33,7],[32,-34],[22,-33],[70,-18],[17,-22],[12,-1],[72,36],[-6,54],[28,14],[21,-17],[9,43],[21,42]],[[5227,6541],[-3,1]],[[5227,6541],[0,0]],[[5368,6474],[-53,-3],[-16,13],[-18,-2],[7,43],[-31,0],[-30,16]],[[5368,6474],[0,0]],[[5559,6389],[-43,11],[-23,19],[-6,25],[-40,5],[-6,-28],[-40,10],[-14,-4],[0,20],[-19,27]],[[5559,6389],[0,0]],[[5700,6459],[-22,-45],[-35,-2],[-40,-9],[-29,-23],[-15,9]],[[5700,6459],[0,0]],[[5745,6523],[-31,-12],[0,-13],[-22,-17],[8,-22]],[[5745,6523],[0,0]],[[5784,6536],[-13,-11],[-26,-2]],[[5784,6536],[0,0]],[[5876,6539],[-4,-25],[-21,-19],[-23,5],[-28,-34],[-19,2],[-3,25],[21,13],[4,19],[-19,11]],[[5876,6539],[0,0]],[[5878,6542],[-2,-3]],[[5878,6542],[0,0]],[[5879,6555],[-1,-13]],[[5879,6555],[0,0]],[[5892,6699],[-10,3],[-26,-24],[-5,-26],[11,-12],[-7,-23],[22,-37],[2,-25]],[[5892,6699],[0,0]],[[5913,6722],[-21,-23]],[[5913,6722],[0,0]],[[5944,6750],[-31,-28]],[[5944,6750],[0,0]],[[6101,6865],[-21,-13],[-42,6],[7,-25],[-59,-41],[-6,-20],[-29,4],[-7,-26]],[[6102,6865],[-1,0]],[[7135,6716],[-26,-14],[-41,3],[-12,-12],[-3,-26],[-30,43],[-30,-24],[-69,13],[-14,13],[-31,-3],[-1,-23],[-24,-20],[-18,-5],[-29,6],[-3,19],[-22,8],[-1,-28],[-17,-8],[-76,20],[-21,-8],[-11,-23],[-71,-5],[-10,5],[-68,5],[-39,10],[-9,-6],[4,-27],[-84,33],[-30,40],[-23,14],[-12,-1],[-35,36],[-57,33],[-34,10],[-4,41],[-34,0],[-27,9],[-21,21]],[[7135,6716],[0,0]],[[7162,6743],[-27,-27]],[[7162,6743],[0,0]],[[7280,6661],[-21,3],[-10,14],[4,43],[-12,11],[-35,-11],[-44,22]],[[7280,6661],[0,0]],[[7293,6601],[0,60],[-13,0]],[[7293,6601],[0,0]],[[7359,6430],[-38,5],[-58,28],[48,65],[-4,22],[6,42],[-20,9]],[[7690,6028],[-50,42],[-50,7],[-61,100],[-16,33],[6,33],[-4,37],[8,43],[-62,29],[-23,-6],[-31,24],[-21,25],[-7,22],[-20,13]],[[7673,6017],[17,11]],[[5995,5356],[13,13],[13,41],[64,44],[36,6],[31,24],[33,7],[57,-15],[49,13],[16,36],[30,10],[14,13],[34,61],[20,13],[65,-7],[71,12],[9,12],[29,-3],[30,-11],[50,18],[80,-15],[6,10],[29,-2],[20,-17],[13,6],[22,-17],[27,-2],[24,11],[16,16],[36,10],[55,-7],[3,5],[76,-8],[17,9],[16,-8],[21,-25],[16,5],[23,-16],[34,0],[22,11],[17,19],[7,25],[22,29],[31,11],[29,-14],[24,17],[22,-3],[29,-24],[32,-47],[34,8],[6,17],[21,9],[1,21],[27,16],[-1,26],[17,13],[15,26],[17,5],[-1,23],[24,51],[11,63],[16,41],[40,43],[18,33]],[[8797,9233],[9,35],[-32,10],[-2,21],[-16,19]],[[8797,9233],[0,0]],[[8797,9221],[0,12]],[[8797,9221],[0,0]],[[8622,8489],[-24,27],[17,35],[-4,22],[16,-1],[29,36],[-8,36],[-37,-2],[0,23],[-11,24],[35,50],[32,6],[19,35],[15,-2],[6,21],[24,11],[-2,33],[-19,5],[29,38],[16,6],[-3,16],[24,56],[-4,20],[9,46],[9,14],[4,54],[14,9],[-23,10],[11,11],[-10,14],[-14,43],[25,36]],[[8622,8489],[0,0]],[[8571,8171],[-11,27],[24,57],[-15,25],[10,4],[-29,17],[-8,22],[9,30],[39,19],[9,38],[19,2],[10,31],[-17,31],[11,15]],[[8571,8171],[0,0]],[[8555,8127],[23,33],[-7,11]],[[8555,8127],[0,0]],[[8528,8105],[27,22]],[[7907,7659],[9,-24]],[[7623,7893],[36,-44],[-15,-13],[8,-13],[10,21],[68,-73],[17,7],[15,-12],[17,8],[-4,-31]],[[7623,7893],[0,0]],[[7610,7899],[13,-6]],[[7610,7899],[0,0]],[[7725,8091],[8,-32],[-12,-27],[8,-11],[-24,-21],[-35,18],[-13,-37],[3,-28],[-26,-14],[-24,-40]],[[7725,8091],[0,0]],[[7494,8363],[45,14],[11,-20],[18,-4],[11,-15],[30,-10],[25,-35],[64,-60],[-4,-37],[39,-53],[-11,-32],[3,-20]],[[8756,9318],[-61,6],[-47,-6],[-32,20],[-30,-30],[-16,26],[-39,13],[-30,-17],[-41,-4],[-10,-11],[-31,6],[-52,55],[-18,7],[-28,24],[-34,1],[-22,-23],[-23,-1],[-36,11],[-21,-22],[-17,32],[-35,33],[-26,8],[4,13]],[[8108,6206],[0,-2]],[[8106,6206],[2,0]],[[8102,6259],[4,-53]],[[8104,6257],[-2,2]],[[8105,6257],[-1,0]],[[8105,6257],[0,0]],[[8105,6257],[0,0]],[[8106,6257],[-1,0]],[[8108,6257],[-2,0]],[[8109,6256],[-1,1]],[[8115,6201],[-11,30],[5,25]],[[8114,6199],[1,2]],[[8113,6199],[1,0]],[[8111,6199],[2,0]],[[8108,6204],[3,-5]],[[7997,6150],[0,2]],[[7996,6152],[1,-2]],[[7997,6152],[-1,0]],[[8102,6278],[1,0]],[[8102,6278],[0,0]],[[8102,6278],[0,0]],[[8102,6278],[1,0]],[[8102,6278],[0,2]],[[8085,6197],[-1,0]],[[8084,6197],[1,0]],[[7853,6140],[-1,0]],[[7853,6140],[0,0]],[[8095,6280],[0,1]],[[8096,6281],[-1,0]],[[8095,6280],[1,1]],[[8095,6280],[1,0]],[[8096,6282],[-1,-1]],[[8096,6281],[0,1]],[[8096,6278],[1,0]],[[8097,6278],[1,0]],[[8098,6278],[0,0]],[[8098,6278],[-1,0]],[[8096,6278],[6,-19]],[[8096,6278],[0,0]],[[8098,6278],[-2,0]],[[8102,6278],[-4,0]],[[8109,6256],[-7,22]],[[8108,6257],[1,-1]],[[8105,6257],[1,0]],[[8102,6259],[2,-2]],[[8113,6197],[0,2]],[[8113,6197],[0,0]],[[8113,6197],[0,0]],[[8111,6199],[2,-2]],[[7618,6634],[-12,-3],[-40,-30],[-38,-13],[-32,16],[-34,-44],[-43,-21],[-22,-55],[-32,-29],[-6,-25]],[[7618,6634],[0,0]],[[7672,6607],[-12,16],[4,17],[-26,10],[-20,-16]],[[7672,6607],[0,0]],[[7971,6819],[-42,38],[0,11],[-30,14],[-32,-11],[-17,-20],[-28,-18],[-11,16],[-36,-33],[-2,-43],[-17,-11],[-4,-19],[6,-24],[2,-71],[-50,-41],[-38,0]],[[8100,6286],[-6,33]],[[8094,6286],[6,0]],[[8084,6197],[-19,16],[-17,24],[10,25],[16,13],[3,22],[17,-11]],[[8113,6197],[-10,-10],[-18,10]],[[8114,6199],[-1,0]],[[8115,6201],[-1,-2]],[[8125,6188],[-10,13]],[[8126,6185],[-1,3]],[[8126,6185],[0,0]],[[7999,6142],[23,-3],[33,17],[12,-6],[39,16],[20,19]],[[7997,6142],[2,0]],[[7997,6150],[0,-8]],[[7997,6152],[0,-2]],[[7995,6155],[1,-3]],[[7995,6155],[0,0]],[[7886,6150],[20,-19],[28,-4],[-4,19],[31,10],[34,-1]],[[7860,6140],[26,10]],[[7859,6142],[1,-2]],[[7859,6142],[0,0]],[[7859,6142],[0,0]],[[7854,6140],[5,2]],[[7854,6140],[0,0]],[[7854,6140],[0,0]],[[7853,6140],[1,0]],[[7852,6142],[0,-2]],[[7766,6088],[13,16],[52,40],[21,-4]],[[7750,6060],[6,-3],[10,31]],[[7750,6061],[0,-1]],[[7720,6044],[30,17]],[[7690,6028],[30,16]],[[1265,308],[0,0]],[[1239,315],[0,0]],[[1284,330],[0,0]],[[1265,310],[0,0]],[[1189,315],[0,0]],[[1240,315],[0,0]],[[1265,310],[1,0]],[[1301,218],[0,0]],[[1301,218],[0,0]],[[1136,270],[0,0]],[[1136,270],[0,0]],[[1163,326],[2,0]],[[1163,326],[0,0]],[[1189,315],[-1,0]],[[1136,270],[1,0]],[[1136,270],[0,0]],[[660,458],[-1,0]],[[660,458],[0,0]],[[2001,465],[0,0]],[[2000,463],[0,0]],[[829,405],[0,-2]],[[830,405],[-1,0]],[[829,403],[1,2]],[[793,511],[0,0]],[[793,511],[0,0]],[[737,474],[0,0]],[[737,474],[0,0]],[[702,470],[0,0]],[[612,373],[0,-1]],[[612,373],[0,0]],[[1143,311],[0,1]],[[1143,311],[0,0]],[[702,470],[1,0]],[[620,346],[0,-1]],[[620,346],[0,0]],[[641,300],[0,0]],[[641,300],[0,0]],[[2001,465],[0,-2]],[[618,348],[2,0]],[[2000,463],[1,0]],[[921,538],[-2,0]],[[919,538],[-1,0]],[[918,538],[0,-1]],[[918,537],[0,-2]],[[2019,681],[0,-2]],[[2019,679],[2,0]],[[2165,983],[16,27],[-19,12],[-15,-43],[18,4]],[[2158,1079],[14,8],[-9,14],[-5,-22]],[[2019,681],[2,-2]],[[2021,679],[0,0]],[[2021,679],[-2,0]],[[188,592],[2,14],[-8,38],[17,26],[-21,73],[-33,-4],[-37,12],[-18,-16],[-18,-26],[-1,-17],[24,-63],[14,-24],[23,-57],[3,-32],[18,-9],[5,20],[28,50],[2,15]],[[2146,817],[38,35],[0,26],[9,19],[-8,26],[13,16],[7,30],[-22,22],[-14,-12],[-12,-49],[-17,-15],[-20,12],[-50,-35],[-22,-2],[-27,-27],[-7,-19],[1,-45],[-24,-26],[2,-17],[25,1],[16,-14],[18,22],[7,20],[42,7],[29,22],[13,1]],[[2143,815],[3,2]],[[386,273],[27,-33],[34,-1],[15,7],[32,36],[-10,37],[-28,15],[-7,12],[-24,3],[-7,9],[-27,-8],[-12,-31],[-1,-35],[8,-11]],[[101,57],[27,43],[-8,26],[-13,4],[-30,-16]],[[62,81],[-21,-11],[-29,12],[-9,-6],[-3,-29],[57,-16],[12,-25],[19,0],[6,44],[7,7]],[[77,114],[0,-18],[-15,-15]],[[1292,138],[-2,40],[11,2],[-11,60]],[[1135,269],[-35,-34],[-12,-3],[-7,-26],[0,-37],[22,-47],[46,-42],[42,-21],[49,36],[29,5],[8,30],[15,8]],[[1136,270],[-1,-1]],[[1136,270],[0,0]],[[1143,311],[-6,-41]],[[1145,326],[-2,-14]],[[1163,326],[-18,0]],[[1165,326],[0,0]],[[1169,326],[-4,0]],[[1169,326],[0,0]],[[1187,315],[-18,11]],[[1188,315],[-1,0]],[[1224,319],[-35,-4]],[[1233,315],[-9,4]],[[1254,303],[-21,12]],[[1255,304],[-1,-1]],[[1256,304],[-1,0]],[[1257,304],[-1,0]],[[1261,305],[-4,-1]],[[1261,305],[0,0]],[[1269,319],[-8,-14]],[[1277,334],[-8,-15]],[[1281,334],[-4,0]],[[1281,334],[0,0]],[[1283,330],[-2,4]],[[1283,330],[0,0]],[[1289,243],[-13,9],[1,40],[-5,23],[11,15]],[[1289,243],[0,-1]],[[1290,240],[-1,2]],[[2001,465],[-2,63],[9,7],[10,53],[-4,68],[-6,18],[-22,19],[-58,-27],[3,-27],[-13,-33],[2,-16],[-15,-25],[-14,-42],[-26,-33],[-6,-39],[-21,-34],[-2,-53],[-41,-46],[-31,-22],[-29,-10],[-28,6],[3,-21],[70,-20],[38,45],[15,30],[45,16],[53,11],[12,12],[23,3],[16,27],[2,30],[16,38]],[[2001,465],[0,0]],[[2000,463],[1,2]],[[921,538],[18,8],[11,22],[-20,19],[-29,-14],[-24,6]],[[919,538],[2,0]],[[918,538],[1,0]],[[918,537],[0,1]],[[830,405],[7,12],[-1,42],[21,12],[30,32],[7,21],[24,11]],[[829,405],[1,0]],[[828,402],[1,1]],[[828,402],[0,0]],[[662,276],[0,-18],[12,-7],[1,-20],[15,-8],[37,19],[25,-2],[18,31],[36,44],[-1,26],[23,61]],[[662,277],[0,-1]],[[661,277],[1,0]],[[659,280],[2,-3]],[[659,280],[0,0]],[[658,281],[1,-1]],[[657,281],[1,0]],[[641,300],[16,-19]],[[641,300],[0,0]],[[620,345],[21,-45]],[[620,348],[0,-2]],[[612,372],[6,-24]],[[612,373],[0,0]],[[640,456],[-19,10],[-46,-22],[12,-15],[25,-56]],[[640,456],[0,0]],[[642,455],[-2,1]],[[642,455],[0,0]],[[659,456],[-17,-1]],[[659,458],[0,-2]],[[660,458],[0,0]],[[665,458],[-5,0]],[[665,458],[0,0]],[[702,470],[-37,-12]],[[703,470],[-1,0]],[[703,470],[0,0]],[[737,474],[-34,-4]],[[779,496],[-16,-14],[-26,-8]],[[793,509],[-14,-13]],[[793,509],[0,0]],[[793,511],[0,-2]],[[796,518],[-3,-7]],[[796,519],[0,-1]],[[808,539],[-12,-21]],[[877,579],[-27,-2],[0,-9],[-24,-6],[-18,-23]],[[877,579],[0,0]],[[6190,7268],[-17,-6],[-38,25],[-40,49],[-11,0],[-57,65],[21,30],[11,44],[-17,26],[2,27],[-16,0],[-24,-29],[-28,8],[1,37],[14,23],[-16,18],[-41,-9],[19,66],[-2,72],[16,10]],[[6190,7268],[0,0]],[[6191,7268],[-1,0]],[[6191,7268],[0,0]],[[6189,7115],[22,41],[45,-7],[31,-10],[-27,26],[-26,67],[24,5],[2,22],[16,36],[-8,18],[-40,-34],[-37,-11]],[[6189,7115],[0,0]],[[6197,6982],[4,14],[-41,11],[-20,59],[13,3],[34,-16],[17,19],[-23,21],[8,22]],[[6197,6982],[0,0]],[[6176,6963],[16,-3],[5,22]],[[6176,6963],[0,0]],[[6102,6865],[19,3],[15,19],[8,41],[18,35],[14,0]],[[5255,7820],[-5,-7],[-35,-1],[-27,-19],[-10,-28],[14,-40],[31,-8],[8,-25],[17,-14],[3,-29],[-5,-33],[-10,-11],[2,-32],[-21,-28],[-19,-11],[0,-28],[-13,-59],[-59,-10],[-45,9],[-44,-16],[-39,4],[-13,8],[-37,4],[-1,-20],[13,-28],[18,-11],[16,-24],[16,-2],[12,-29],[33,-18],[-13,-44],[6,-26],[37,-39],[-8,-14],[12,-38],[41,-14],[-7,-35],[20,-9],[32,12],[26,-19],[14,-40],[-34,-60],[-13,-13],[9,-18],[-17,-14],[-13,-24],[-11,1],[-56,-50],[-11,-21],[-2,-42],[12,-7],[-19,-30],[-17,-61],[9,-7],[-15,-18],[23,-10],[7,-18],[32,-39],[27,-41],[16,-45],[12,-11],[28,8],[5,13],[37,1]],[[6875,8041],[0,0]],[[6389,7813],[-9,-16],[-33,-12],[-8,-9],[-20,11]],[[6389,7813],[0,0]],[[6508,7831],[-15,-12],[-19,3],[-21,-32],[-27,8],[-4,46],[-33,-31]],[[6508,7831],[0,0]],[[6617,7778],[-24,4],[-16,24],[-27,11],[-11,-16],[-21,5],[-10,25]],[[6617,7778],[0,0]],[[6720,7741],[-26,-3],[-13,22],[-16,-8],[-20,19],[-28,7]],[[6720,7741],[0,0]],[[6721,7741],[-1,0]],[[6722,7741],[-1,0]],[[6747,7676],[16,10],[7,33],[-48,22]],[[6747,7676],[0,0]],[[6711,7639],[18,26],[18,11]],[[6711,7639],[0,0]],[[6646,7595],[-1,13],[66,21],[0,10]],[[6646,7595],[0,0]],[[6815,7678],[-4,-13],[-33,-4],[-22,-15],[2,-14],[-36,-8],[-44,-41],[-32,12]],[[6815,7678],[0,0]],[[6817,7681],[-2,-3]],[[6817,7681],[0,0]],[[6841,7681],[-24,0]],[[6841,7681],[0,0]],[[6862,7678],[-21,3]],[[6862,7678],[0,0]],[[6926,7686],[-13,-2],[-14,19],[-22,-4],[1,-15],[-16,-6]],[[6926,7686],[0,0]],[[6956,7692],[-30,-6]],[[6956,7692],[0,0]],[[7022,7727],[5,-16],[-17,-16],[-32,-3],[-2,16],[-20,-16]],[[7022,7727],[0,0]],[[7022,7727],[0,0]],[[7022,7727],[0,0]],[[7019,7730],[3,-3]],[[7019,7730],[0,0]],[[7017,7736],[2,-6]],[[7017,7736],[0,0]],[[7016,7736],[1,0]],[[7016,7736],[0,0]],[[7012,7738],[4,-2]],[[7012,7738],[0,0]],[[7012,7738],[0,0]],[[7010,7740],[2,-2]],[[7010,7740],[0,0]],[[6983,7866],[-13,-19],[-8,-41],[11,-5],[26,27],[17,-34],[-6,-54]],[[6984,7866],[-1,0]],[[6860,8069],[20,4],[3,-19],[20,-23],[-4,-10],[21,-14],[-5,-22],[22,3],[22,-16],[1,-46],[21,-3],[11,-21],[-8,-36]],[[6860,8069],[0,0]],[[6855,8073],[5,-4]],[[6855,8073],[0,0]],[[6844,8075],[11,-2]],[[6844,8075],[0,0]],[[6819,8141],[27,-14],[4,-27],[-6,-25]],[[6819,8141],[0,0]],[[6854,8323],[-5,-25],[21,-26],[-11,-9],[-13,-49],[2,-19],[-29,-54]],[[6854,8323],[0,0]],[[6802,8374],[23,-43],[29,-8]],[[9928,8815],[0,0]],[[9928,8815],[0,0]],[[9930,8818],[-1,0]],[[9930,8818],[0,0]],[[9930,8818],[-1,0]],[[9929,8816],[0,0]],[[9984,9079],[0,0]],[[9984,9079],[0,0]],[[9922,9117],[0,2]],[[9922,9117],[0,0]],[[9816,8718],[0,0]],[[9816,8718],[0,0]],[[9988,9071],[0,0]],[[9988,9071],[0,0]],[[9945,8842],[0,0]],[[9946,8844],[0,1]],[[9946,8844],[0,0]],[[9929,8816],[1,0]],[[8785,8133],[0,2]],[[8785,8133],[0,0]],[[9975,9065],[-1,0]],[[9974,9065],[0,1]],[[9485,8525],[0,-1]],[[8791,8163],[0,-1]],[[8791,8163],[0,0]],[[9986,9093],[1,0]],[[9987,9093],[-1,0]],[[9981,9066],[-1,-1]],[[9980,9065],[1,1]],[[9945,8844],[1,0]],[[9945,8844],[0,0]],[[9859,8750],[0,-1]],[[9859,8750],[0,0]],[[9753,8688],[0,0]],[[9945,8842],[1,0]],[[9753,8688],[0,1]],[[9946,8842],[0,1]],[[9946,8843],[0,-1]],[[8801,8176],[-1,0]],[[8801,8176],[0,0]],[[9378,9191],[-8,5],[-11,-22],[27,-5],[-8,22]],[[9412,8443],[489,532]],[[9281,8410],[31,7],[40,18],[31,0],[29,8]],[[9281,8410],[0,0]],[[8801,8176],[18,14],[30,48],[60,58],[26,14],[45,7],[9,-11],[30,25],[33,19],[46,3],[32,21],[35,11],[62,9],[54,16]],[[8791,8163],[9,13]],[[8785,8135],[-11,13],[17,14]],[[8791,8140],[-6,-7]],[[8790,8140],[1,0]],[[8847,8105],[-10,0],[-33,39],[-14,-4]],[[8847,8104],[0,1]],[[8850,8100],[-3,4]],[[8688,7975],[10,27],[33,35],[64,10],[-21,-31],[-18,2],[-28,-9],[18,-15],[22,9],[34,47],[45,26],[3,24]],[[9921,9145],[4,15],[-41,-6],[-25,31],[-50,-11],[-40,1],[-17,-25],[-39,2],[-30,-21],[9,-30],[-44,12],[-17,-16],[-27,4],[-22,31],[-42,12],[-42,17],[-23,-12],[-23,4],[-33,-38],[-34,-6],[-22,17],[-3,27],[-12,19],[-23,-3],[-28,23],[-45,10],[-27,2],[-7,-24],[-45,-8],[-2,-14],[-47,3],[-15,29],[22,15],[-10,21],[-1,35],[-25,55],[-15,19],[-49,-3],[-9,8],[-28,-11],[-18,11],[-11,28],[-33,10],[-25,0],[-12,11],[-15,-11],[-32,24],[-34,6],[-36,16],[-22,-13],[2,-57],[9,-20],[-11,-16]],[[9922,9119],[-1,26]],[[9922,9119],[0,0]],[[9921,9115],[1,2]],[[9957,9101],[-21,-3],[-15,17]],[[9977,9096],[-20,5]],[[9986,9093],[-9,3]],[[9986,9093],[0,0]],[[9992,9090],[-5,3]],[[9988,9084],[4,6]],[[9988,9084],[0,0]],[[9987,9082],[1,2]],[[9987,9082],[0,0]],[[9987,9082],[0,0]],[[9984,9079],[3,3]],[[9980,9078],[4,1]],[[9981,9071],[-1,7]],[[9982,9069],[-1,2]],[[9981,9066],[1,3]],[[9974,9066],[6,-1]],[[9974,9065],[1,0]],[[9976,9060],[-2,5]],[[9901,8975],[-5,42],[12,27],[13,11],[24,-20],[5,11],[25,1],[1,13]],[[9901,8975],[4,-5]],[[9905,8970],[31,-27]],[[9936,8943],[4,-8]],[[9940,8935],[-5,-36],[17,-27],[-6,-21]],[[9946,8851],[0,-6]],[[9946,8844],[0,-1]],[[9945,8842],[-16,-24]],[[9929,8818],[0,0]],[[9930,8818],[0,-2]],[[9929,8816],[-1,0]],[[9928,8816],[0,0]],[[9928,8816],[0,0]],[[9928,8816],[0,-1]],[[9928,8815],[1,-2]],[[9929,8813],[-1,0]],[[9928,8813],[0,0]],[[9928,8813],[0,0]],[[9928,8813],[0,0]],[[9928,8813],[-1,-4]],[[9927,8809],[-23,-18],[-11,5],[-22,-38]],[[9871,8758],[-1,0]],[[9870,8758],[-11,-8]],[[9859,8749],[0,0]],[[9859,8749],[-24,-9]],[[9835,8740],[-19,-22]],[[9816,8718],[0,0]],[[9816,8718],[-31,-13]],[[9785,8705],[-26,-12]],[[9759,8693],[-6,-4]],[[9753,8689],[-13,-16],[-141,-62],[-47,-38],[-34,-8],[-23,-19],[-10,-21]],[[9485,8525],[0,0]],[[9485,8524],[0,1]],[[9485,8525],[-2,-3]],[[9483,8522],[-1,0]],[[9482,8522],[0,0]],[[9482,8522],[-17,-25]],[[9465,8497],[-1,9],[-20,-49],[-32,-14]],[[5976,5108],[0,0]],[[5976,5108],[0,0]],[[5976,5108],[-1,0]],[[5975,5108],[-1,0]],[[5974,5108],[2,0]],[[5976,5108],[-30,17],[2,-19],[13,-9],[13,11]],[[5975,5108],[1,0]],[[7075,4725],[11,14],[-14,13],[3,-27]],[[8108,6206],[0,0]],[[8108,6204],[0,0]],[[6713,9800],[0,0]],[[6713,9802],[0,0]],[[6714,9802],[0,0]],[[6714,9805],[0,0]],[[6713,9803],[0,0]]],"transform":{"scale":[0.002149534693469347,0.0016154298529852988],"translate":[-18.1608733,27.6377389]}}